start=new Date('2021-09-08T00:00:00.000Z').valueOf();
sats=[{"MEAN_MOTION_DDOT":"0.0000000000000","PERIOD":"95.592","REV_AT_EPOCH":"357","COUNTRY_CODE":"US","MEAN_ELEMENT_THEORY":"SGP4","RCS_SIZE":"LARGE","OBJECT_ID":"2021-012AA","DECAY_DATE":null,"SITE":"AFETR","OBJECT_TYPE":"PAYLOAD","EPOCH":"2021-09-08T00:00:00.999648","EPHEMERIS_TYPE":"0","FILE":"3110443","ELEMENT_SET_NO":"999","TLE_LINE2":"2 47644  53.0524 250.4351 0001224  66.9584 180.8982 15.06409392  3573","MEAN_MOTION":"15.06409392","RA_OF_ASC_NODE":"250.4351","OBJECT_NAME":"STARLINK-2026","TLE_LINE1":"1 47644U 21012AA  21251.00001157  .00015739  00000-0  10729-2 0  9992","TIME_SYSTEM":"UTC","LAUNCH_DATE":"2021-02-16","REF_FRAME":"TEME","MEAN_ANOMALY":"180.8982","INCLINATION":"53.0524","ARG_OF_PERICENTER":"66.9584","SEMIMAJOR_AXIS":"6925.320","BSTAR":"0.00107290000000","ECCENTRICITY":"0.00012240","NORAD_CAT_ID":"47644","PERIAPSIS":"546.337","APOAPSIS":"548.032","CENTER_NAME":"EARTH","MEAN_MOTION_DOT":"0.00015739","CLASSIFICATION_TYPE":"U","GP_ID":"184283032"},{"INCLINATION":"53.0466","MEAN_ANOMALY":"62.7920","ARG_OF_PERICENTER":"195.1971","TIME_SYSTEM":"UTC","LAUNCH_DATE":"2021-02-16","REF_FRAME":"TEME","PERIAPSIS":"542.785","APOAPSIS":"551.535","CENTER_NAME":"EARTH","MEAN_MOTION_DOT":"-0.00016705","CLASSIFICATION_TYPE":"U","GP_ID":"184284283","SEMIMAJOR_AXIS":"6925.295","BSTAR":"-0.00110400000000","ECCENTRICITY":"0.00063180","NORAD_CAT_ID":"47645","FILE":"3110443","EPHEMERIS_TYPE":"0","ELEMENT_SET_NO":"999","PERIOD":"95.591","MEAN_MOTION_DDOT":"0.0000000000000","REV_AT_EPOCH":"357","COUNTRY_CODE":"US","MEAN_ELEMENT_THEORY":"SGP4","RCS_SIZE":"LARGE","SITE":"AFETR","EPOCH":"2021-09-08T00:00:00.999648","OBJECT_TYPE":"PAYLOAD","DECAY_DATE":null,"OBJECT_ID":"2021-012AB","OBJECT_NAME":"STARLINK-2027","TLE_LINE1":"1 47645U 21012AB  21251.00001157 -.00016705  00000-0 -11040-2 0  9996","MEAN_MOTION":"15.06417495","TLE_LINE2":"2 47645  53.0466 220.4591 0006318 195.1971  62.7920 15.06417495  3579","RA_OF_ASC_NODE":"220.4591"},{"APOAPSIS":"548.578","CENTER_NAME":"EARTH","PERIAPSIS":"545.801","GP_ID":"184284034","CLASSIFICATION_TYPE":"U","MEAN_MOTION_DOT":"-0.00028102","BSTAR":"-0.00187470000000","SEMIMAJOR_AXIS":"6925.324","NORAD_CAT_ID":"47646","ECCENTRICITY":"0.00020050","ARG_OF_PERICENTER":"73.0149","INCLINATION":"53.0544","MEAN_ANOMALY":"257.5774","LAUNCH_DATE":"2021-02-16","TIME_SYSTEM":"UTC","REF_FRAME":"TEME","OBJECT_NAME":"STARLINK-2028","TLE_LINE1":"1 47646U 21012AC  21251.00001157 -.00028102  00000-0 -18747-2 0  9992","MEAN_MOTION":"15.06407972","TLE_LINE2":"2 47646  53.0544 185.4170 0002005  73.0149 257.5774 15.06407972  3570","RA_OF_ASC_NODE":"185.4170","FILE":"3110443","EPHEMERIS_TYPE":"0","ELEMENT_SET_NO":"999","REV_AT_EPOCH":"357","COUNTRY_CODE":"US","MEAN_ELEMENT_THEORY":"SGP4","PERIOD":"95.592","MEAN_MOTION_DDOT":"0.0000000000000","SITE":"AFETR","OBJECT_TYPE":"PAYLOAD","EPOCH":"2021-09-08T00:00:00.999648","OBJECT_ID":"2021-012AC","DECAY_DATE":null,"RCS_SIZE":"LARGE"},{"PERIOD":"95.593","MEAN_MOTION_DDOT":"0.0000000000000","COUNTRY_CODE":"US","REV_AT_EPOCH":"357","MEAN_ELEMENT_THEORY":"SGP4","RCS_SIZE":"LARGE","EPOCH":"2021-09-08T00:00:00.999648","SITE":"AFETR","OBJECT_TYPE":"PAYLOAD","DECAY_DATE":null,"OBJECT_ID":"2021-012AD","FILE":"3110443","EPHEMERIS_TYPE":"0","ELEMENT_SET_NO":"999","MEAN_MOTION":"15.06390163","TLE_LINE2":"2 47647  53.0536 250.4232 0001469  64.0301 123.9351 15.06390163  3577","RA_OF_ASC_NODE":"250.4232","OBJECT_NAME":"STARLINK-2030","TLE_LINE1":"1 47647U 21012AD  21251.00001157  .00012560  00000-0  86079-3 0  9996","TIME_SYSTEM":"UTC","LAUNCH_DATE":"2021-02-16","REF_FRAME":"TEME","INCLINATION":"53.0536","MEAN_ANOMALY":"123.9351","ARG_OF_PERICENTER":"64.0301","SEMIMAJOR_AXIS":"6925.379","BSTAR":"0.00086079000000","ECCENTRICITY":"0.00014690","NORAD_CAT_ID":"47647","PERIAPSIS":"546.226","APOAPSIS":"548.261","CENTER_NAME":"EARTH","MEAN_MOTION_DOT":"0.00012560","CLASSIFICATION_TYPE":"U","GP_ID":"184282782"},{"PERIAPSIS":"546.295","CENTER_NAME":"EARTH","APOAPSIS":"548.010","MEAN_MOTION_DOT":"-0.00005589","CLASSIFICATION_TYPE":"U","GP_ID":"184283532","SEMIMAJOR_AXIS":"6925.288","BSTAR":"-0.00035642000000","ECCENTRICITY":"0.00012380","NORAD_CAT_ID":"47648","INCLINATION":"53.0539","MEAN_ANOMALY":"184.4617","ARG_OF_PERICENTER":"53.3738","TIME_SYSTEM":"UTC","LAUNCH_DATE":"2021-02-16","REF_FRAME":"TEME","OBJECT_NAME":"STARLINK-2031","TLE_LINE1":"1 47648U 21012AE  21251.00001157 -.00005589  00000-0 -35642-3 0  9992","TLE_LINE2":"2 47648  53.0539 230.4167 0001238  53.3738 184.4617 15.06419887  3577","MEAN_MOTION":"15.06419887","RA_OF_ASC_NODE":"230.4167","FILE":"3110443","EPHEMERIS_TYPE":"0","ELEMENT_SET_NO":"999","MEAN_MOTION_DDOT":"0.0000000000000","PERIOD":"95.591","COUNTRY_CODE":"US","MEAN_ELEMENT_THEORY":"SGP4","REV_AT_EPOCH":"357","RCS_SIZE":"MEDIUM","EPOCH":"2021-09-08T00:00:00.999648","SITE":"AFETR","OBJECT_TYPE":"PAYLOAD","OBJECT_ID":"2021-012AE","DECAY_DATE":null},{"RCS_SIZE":"MEDIUM","DECAY_DATE":null,"OBJECT_ID":"2021-012AF","SITE":"AFETR","OBJECT_TYPE":"PAYLOAD","EPOCH":"2021-09-08T00:00:00.999648","PERIOD":"95.592","MEAN_MOTION_DDOT":"0.0000000000000","REV_AT_EPOCH":"357","COUNTRY_CODE":"US","MEAN_ELEMENT_THEORY":"SGP4","ELEMENT_SET_NO":"999","EPHEMERIS_TYPE":"0","FILE":"3110443","RA_OF_ASC_NODE":"230.4241","MEAN_MOTION":"15.06397961","TLE_LINE2":"2 47649  53.0551 230.4241 0001013  52.3325 165.6377 15.06397961  3579","TLE_LINE1":"1 47649U 21012AF  21251.00001157 -.00005676  00000-0 -36250-3 0  9996","OBJECT_NAME":"STARLINK-2032","REF_FRAME":"TEME","TIME_SYSTEM":"UTC","LAUNCH_DATE":"2021-02-16","MEAN_ANOMALY":"165.6377","INCLINATION":"53.0551","ARG_OF_PERICENTER":"52.3325","ECCENTRICITY":"0.00010130","NORAD_CAT_ID":"47649","SEMIMAJOR_AXIS":"6925.355","BSTAR":"-0.00036250000000","CLASSIFICATION_TYPE":"U","MEAN_MOTION_DOT":"-0.00005676","GP_ID":"184283784","PERIAPSIS":"546.518","APOAPSIS":"547.921","CENTER_NAME":"EARTH"},{"INCLINATION":"53.0542","MEAN_ANOMALY":"238.8940","ARG_OF_PERICENTER":"59.0303","TIME_SYSTEM":"UTC","LAUNCH_DATE":"2021-02-16","REF_FRAME":"TEME","PERIAPSIS":"546.337","CENTER_NAME":"EARTH","APOAPSIS":"547.960","CLASSIFICATION_TYPE":"U","MEAN_MOTION_DOT":"-0.00005664","GP_ID":"184284534","SEMIMAJOR_AXIS":"6925.283","BSTAR":"-0.00036142000000","ECCENTRICITY":"0.00011720","NORAD_CAT_ID":"47650","FILE":"3110443","EPHEMERIS_TYPE":"0","ELEMENT_SET_NO":"999","MEAN_MOTION_DDOT":"0.0000000000000","PERIOD":"95.591","COUNTRY_CODE":"US","REV_AT_EPOCH":"357","MEAN_ELEMENT_THEORY":"SGP4","RCS_SIZE":"LARGE","EPOCH":"2021-09-08T00:00:00.999648","SITE":"AFETR","OBJECT_TYPE":"PAYLOAD","OBJECT_ID":"2021-012AG","DECAY_DATE":null,"OBJECT_NAME":"STARLINK-2033","TLE_LINE1":"1 47650U 21012AG  21251.00001157 -.00005664  00000-0 -36142-3 0  9995","TLE_LINE2":"2 47650  53.0542 230.4270 0001172  59.0303 238.8940 15.06421341  3578","MEAN_MOTION":"15.06421341","RA_OF_ASC_NODE":"230.4270"},{"REF_FRAME":"TEME","LAUNCH_DATE":"2021-02-16","TIME_SYSTEM":"UTC","ARG_OF_PERICENTER":"73.6102","MEAN_ANOMALY":"39.4390","INCLINATION":"53.0543","NORAD_CAT_ID":"47651","ECCENTRICITY":"0.00011640","BSTAR":"0.00093945000000","SEMIMAJOR_AXIS":"6925.387","GP_ID":"184283282","MEAN_MOTION_DOT":"0.00013734","CLASSIFICATION_TYPE":"U","CENTER_NAME":"EARTH","APOAPSIS":"548.058","PERIAPSIS":"546.446","OBJECT_ID":"2021-012AH","DECAY_DATE":null,"EPOCH":"2021-09-08T00:00:00.999648","SITE":"AFETR","OBJECT_TYPE":"PAYLOAD","RCS_SIZE":"LARGE","MEAN_ELEMENT_THEORY":"SGP4","COUNTRY_CODE":"US","REV_AT_EPOCH":"357","MEAN_MOTION_DDOT":"0.0000000000000","PERIOD":"95.593","ELEMENT_SET_NO":"999","EPHEMERIS_TYPE":"0","FILE":"3110443","RA_OF_ASC_NODE":"250.4261","MEAN_MOTION":"15.06387341","TLE_LINE2":"2 47651  53.0543 250.4261 0001164  73.6102  39.4390 15.06387341  3577","TLE_LINE1":"1 47651U 21012AH  21251.00001157  .00013734  00000-0  93945-3 0  9995","OBJECT_NAME":"STARLINK-2035"},{"TIME_SYSTEM":"UTC","LAUNCH_DATE":"2021-02-16","REF_FRAME":"TEME","INCLINATION":"53.0530","MEAN_ANOMALY":"251.6801","ARG_OF_PERICENTER":"76.1926","SEMIMAJOR_AXIS":"6925.380","BSTAR":"0.00136550000000","ECCENTRICITY":"0.00014750","NORAD_CAT_ID":"47652","PERIAPSIS":"546.223","CENTER_NAME":"EARTH","APOAPSIS":"548.266","MEAN_MOTION_DOT":"0.00020110","CLASSIFICATION_TYPE":"U","GP_ID":"184283033","PERIOD":"95.593","MEAN_MOTION_DDOT":"0.0000000000000","REV_AT_EPOCH":"362","COUNTRY_CODE":"US","MEAN_ELEMENT_THEORY":"SGP4","RCS_SIZE":"LARGE","EPOCH":"2021-09-08T00:00:00.999648","SITE":"AFETR","OBJECT_TYPE":"PAYLOAD","DECAY_DATE":null,"OBJECT_ID":"2021-012AJ","FILE":"3110443","EPHEMERIS_TYPE":"0","ELEMENT_SET_NO":"999","TLE_LINE2":"2 47652  53.0530 250.4235 0001475  76.1926 251.6801 15.06389878  3620","MEAN_MOTION":"15.06389878","RA_OF_ASC_NODE":"250.4235","OBJECT_NAME":"STARLINK-2036","TLE_LINE1":"1 47652U 21012AJ  21251.00001157  .00020110  00000-0  13655-2 0  9991"},{"TIME_SYSTEM":"UTC","LAUNCH_DATE":"2021-02-16","REF_FRAME":"TEME","MEAN_ANOMALY":"315.6367","INCLINATION":"53.0498","ARG_OF_PERICENTER":"42.3047","SEMIMAJOR_AXIS":"6925.333","BSTAR":"-0.00045084000000","ECCENTRICITY":"0.00009440","NORAD_CAT_ID":"47653","PERIAPSIS":"546.545","CENTER_NAME":"EARTH","APOAPSIS":"547.852","MEAN_MOTION_DOT":"-0.00006991","CLASSIFICATION_TYPE":"U","GP_ID":"184284284","MEAN_MOTION_DDOT":"0.0000000000000","PERIOD":"95.592","REV_AT_EPOCH":"361","COUNTRY_CODE":"US","MEAN_ELEMENT_THEORY":"SGP4","RCS_SIZE":"LARGE","OBJECT_ID":"2021-012AK","DECAY_DATE":null,"SITE":"AFETR","EPOCH":"2021-09-08T00:00:00.999648","OBJECT_TYPE":"PAYLOAD","EPHEMERIS_TYPE":"0","FILE":"3110443","ELEMENT_SET_NO":"999","MEAN_MOTION":"15.06404986","TLE_LINE2":"2 47653  53.0498 230.4267 0000944  42.3047 315.6367 15.06404986  3611","RA_OF_ASC_NODE":"230.4267","OBJECT_NAME":"STARLINK-2037","TLE_LINE1":"1 47653U 21012AK  21251.00001157 -.00006991  00000-0 -45084-3 0  9997"}];
